{
  "type": "FeatureCollection",
  "features": [
    {
      "type": "Feature",
      "properties": {
        "norad_id": 41773,
        "name": "SKYSAT-C2",
        "group": "resource",
        "lat": 66.27800848671396,
        "lon": 6.992729540059561,
        "alt_km": 446.32480560538716,
        "timestamp": "2025-12-25T07:41:09.380373+00:00",
        "meta_object_name": "SKYSAT-C2",
        "meta_object_id": "2016-058D",
        "meta_epoch": "2025-12-24T18:53:55.761216",
        "meta_mean_motion": 15.37535283,
        "meta_eccentricity": 0.00028111,
        "meta_inclination": 97.035,
        "meta_ra_of_asc_node": 22.804,
        "meta_arg_of_pericenter": 358.0157,
        "meta_mean_anomaly": 2.1077,
        "meta_ephemeris_type": 0,
        "meta_classification_type": "U",
        "meta_norad_cat_id": 41773,
        "meta_element_set_no": 999,
        "meta_rev_at_epoch": 51821,
        "meta_bstar": 0.00031458029,
        "meta_mean_motion_dot": 0.00011512,
        "meta_mean_motion_ddot": 0,
        "tle_line1": "1 41773U 16058D   25358.78745094  .00011512  00000+0  31458-3 0  9992",
        "tle_line2": "2 41773  97.0350  22.8040 0002811 358.0157   2.1077 15.37535283518211"
      },
      "geometry": {
        "type": "Point",
        "coordinates": [
          6.992729540059561,
          66.27800848671396
        ]
      }
    },
    {
      "type": "Feature",
      "properties": {
        "norad_id": 41774,
        "name": "SKYSAT-C3",
        "group": "resource",
        "lat": -41.428089462742854,
        "lon": -153.67794917734298,
        "alt_km": 439.1957118959972,
        "timestamp": "2025-12-25T07:41:09.380387+00:00",
        "meta_object_name": "SKYSAT-C3",
        "meta_object_id": "2016-058E",
        "meta_epoch": "2025-12-24T19:50:49.663680",
        "meta_mean_motion": 15.44820533,
        "meta_eccentricity": 0.00021264,
        "meta_inclination": 96.928,
        "meta_ra_of_asc_node": 32.0116,
        "meta_arg_of_pericenter": 105.883,
        "meta_mean_anomaly": 254.2654,
        "meta_ephemeris_type": 0,
        "meta_classification_type": "U",
        "meta_norad_cat_id": 41774,
        "meta_element_set_no": 999,
        "meta_rev_at_epoch": 51912,
        "meta_bstar": 0.00042040083,
        "meta_mean_motion_dot": 0.00019642,
        "meta_mean_motion_ddot": 0,
        "tle_line1": "1 41774U 16058E   25358.82696370  .00019642  00000+0  42040-3 0  9991",
        "tle_line2": "2 41774  96.9280  32.0116 0002126 105.8830 254.2654 15.44820533519129"
      },
      "geometry": {
        "type": "Point",
        "coordinates": [
          -153.67794917734298,
          -41.428089462742854
        ]
      }
    },
    {
      "type": "Feature",
      "properties": {
        "norad_id": 41785,
        "name": "ALSAT 1B",
        "group": "resource",
        "lat": 40.262906670484426,
        "lon": 3.9163018344303153,
        "alt_km": 644.5683198713423,
        "timestamp": "2025-12-25T07:41:09.380399+00:00",
        "meta_object_name": "ALSAT 1B",
        "meta_object_id": "2016-059C",
        "meta_epoch": "2025-12-24T23:20:42.811872",
        "meta_mean_motion": 14.72087362,
        "meta_eccentricity": 0.00107412,
        "meta_inclination": 97.7807,
        "meta_ra_of_asc_node": 10.2338,
        "meta_arg_of_pericenter": 69.1975,
        "meta_mean_anomaly": 291.0382,
        "meta_ephemeris_type": 0,
        "meta_classification_type": "U",
        "meta_norad_cat_id": 41785,
        "meta_element_set_no": 999,
        "meta_rev_at_epoch": 49494,
        "meta_bstar": 6.0030793e-05,
        "meta_mean_motion_dot": 3.31e-06,
        "meta_mean_motion_ddot": 0,
        "tle_line1": "1 41785U 16059C   25358.97271773  .00000331  00000+0  60031-4 0  9992",
        "tle_line2": "2 41785  97.7807  10.2338 0010741  69.1975 291.0382 14.72087362494947"
      },
      "geometry": {
        "type": "Point",
        "coordinates": [
          3.9163018344303153,
          40.262906670484426
        ]
      }
    },
    {
      "type": "Feature",
      "properties": {
        "norad_id": 41787,
        "name": "PATHFINDER 1",
        "group": "resource",
        "lat": -80.41824284610418,
        "lon": 127.07494990242182,
        "alt_km": 692.4832782044668,
        "timestamp": "2025-12-25T07:41:09.380410+00:00",
        "meta_object_name": "PATHFINDER 1",
        "meta_object_id": "2016-059E",
        "meta_epoch": "2025-12-24T17:23:29.831712",
        "meta_mean_motion": 14.67341271,
        "meta_eccentricity": 0.00296241,
        "meta_inclination": 97.8138,
        "meta_ra_of_asc_node": 0.9421,
        "meta_arg_of_pericenter": 44.627,
        "meta_mean_anomaly": 315.7313,
        "meta_ephemeris_type": 0,
        "meta_classification_type": "U",
        "meta_norad_cat_id": 41787,
        "meta_element_set_no": 999,
        "meta_rev_at_epoch": 49412,
        "meta_bstar": 0.00014621917,
        "meta_mean_motion_dot": 7.84e-06,
        "meta_mean_motion_ddot": 0,
        "tle_line1": "1 41787U 16059E   25358.72465083  .00000784  00000+0  14622-3 0  9992",
        "tle_line2": "2 41787  97.8138   0.9421 0029624  44.6270 315.7313 14.67341271494126"
      },
      "geometry": {
        "type": "Point",
        "coordinates": [
          127.07494990242182,
          -80.41824284610418
        ]
      }
    },
    {
      "type": "Feature",
      "properties": {
        "norad_id": 41790,
        "name": "SCATSAT 1",
        "group": "resource",
        "lat": 61.9124298790952,
        "lon": 40.580333740161,
        "alt_km": 590.6869796370956,
        "timestamp": "2025-12-25T07:41:09.380420+00:00",
        "meta_object_name": "SCATSAT 1",
        "meta_object_id": "2016-059H",
        "meta_epoch": "2025-12-24T21:39:40.666464",
        "meta_mean_motion": 14.78974547,
        "meta_eccentricity": 0.00564661,
        "meta_inclination": 98.1447,
        "meta_ra_of_asc_node": 55.7239,
        "meta_arg_of_pericenter": 89.7014,
        "meta_mean_anomaly": 271.0667,
        "meta_ephemeris_type": 0,
        "meta_classification_type": "U",
        "meta_norad_cat_id": 41790,
        "meta_element_set_no": 999,
        "meta_rev_at_epoch": 7582,
        "meta_bstar": 0.00020488361,
        "meta_mean_motion_dot": 1.497e-05,
        "meta_mean_motion_ddot": 0,
        "tle_line1": "1 41790U 16059H   25358.90255401  .00001497  00000+0  20488-3 0  9996",
        "tle_line2": "2 41790  98.1447  55.7239 0056466  89.7014 271.0667 14.78974547 75820"
      },
      "geometry": {
        "type": "Point",
        "coordinates": [
          40.580333740161,
          61.9124298790952
        ]
      }
    },
    {
      "type": "Feature",
      "properties": {
        "norad_id": 41875,
        "name": "GOKTURK 1A",
        "group": "resource",
        "lat": 42.739466581097844,
        "lon": 79.12047349233255,
        "alt_km": 680.140626135927,
        "timestamp": "2025-12-25T07:41:09.380430+00:00",
        "meta_object_name": "GOKTURK 1A",
        "meta_object_id": "2016-073A",
        "meta_epoch": "2025-12-24T22:51:18.548064",
        "meta_mean_motion": 14.62794258,
        "meta_eccentricity": 0.00012903,
        "meta_inclination": 98.1427,
        "meta_ra_of_asc_node": 251.1549,
        "meta_arg_of_pericenter": 81.2822,
        "meta_mean_anomaly": 278.8526,
        "meta_ephemeris_type": 0,
        "meta_classification_type": "U",
        "meta_norad_cat_id": 41875,
        "meta_element_set_no": 999,
        "meta_rev_at_epoch": 48335,
        "meta_bstar": 0.00018394075,
        "meta_mean_motion_dot": 8.92e-06,
        "meta_mean_motion_ddot": 0,
        "tle_line1": "1 41875U 16073A   25358.95229801  .00000892  00000+0  18394-3 0  9997",
        "tle_line2": "2 41875  98.1427 251.1549 0001290  81.2822 278.8526 14.62794258483359"
      },
      "geometry": {
        "type": "Point",
        "coordinates": [
          79.12047349233255,
          42.739466581097844
        ]
      }
    },
    {
      "type": "Feature",
      "properties": {
        "norad_id": 41877,
        "name": "RESOURCESAT-2A",
        "group": "resource",
        "lat": 55.48825582216477,
        "lon": -97.91774497596441,
        "alt_km": 814.3391917716299,
        "timestamp": "2025-12-25T07:41:09.380440+00:00",
        "meta_object_name": "RESOURCESAT-2A",
        "meta_object_id": "2016-074A",
        "meta_epoch": "2025-12-24T22:39:40.304736",
        "meta_mean_motion": 14.21604631,
        "meta_eccentricity": 0.00016184,
        "meta_inclination": 98.7739,
        "meta_ra_of_asc_node": 68.7284,
        "meta_arg_of_pericenter": 201.2433,
        "meta_mean_anomaly": 158.8677,
        "meta_ephemeris_type": 0,
        "meta_classification_type": "U",
        "meta_norad_cat_id": 41877,
        "meta_element_set_no": 999,
        "meta_rev_at_epoch": 46954,
        "meta_bstar": 4.1265521e-05,
        "meta_mean_motion_dot": 4.6e-07,
        "meta_mean_motion_ddot": 0,
        "tle_line1": "1 41877U 16074A   25358.94421649  .00000046  00000+0  41266-4 0  9999",
        "tle_line2": "2 41877  98.7739  68.7284 0001618 201.2433 158.8677 14.21604631469546"
      },
      "geometry": {
        "type": "Point",
        "coordinates": [
          -97.91774497596441,
          55.48825582216477
        ]
      }
    }
  ]
}